ONEWEB-0578             
1 56067U 23043X   26201.33335437  .00000024  00000+0  25439-4 0  9990
2 56067  87.9237 237.3764 0002000  85.6766 274.4596 13.21826094162613
ONEWEB-0579             
1 56068U 23043Y   26201.17353187 -.00000058  00000+0 -17110-3 0  9990
2 56068  87.9236 237.4064 0002107 101.9706 258.1664 13.21824052162607
ONEWEB-0581             
1 56069U 23043Z   26201.28493172  .00000030  00000+0  43991-4 0  9997
2 56069  87.9073 222.2093 0001486  94.6533 265.4768 13.16594831163314
ONEWEB-0609             
1 56070U 23043AA  26201.49449636  .00000007  00000+0 -14872-4 0  9999
2 56070  87.8977 252.5744 0002120  95.1555 264.9817 13.15547670160812
ONEWEB-0613             
1 56071U 23043AB  26201.18789003 -.00000030  00000+0 -11326-3 0  9998
2 56071  87.8977 252.6480 0002207 102.1075 258.0303 13.15547947160779
ONEWEB-0630             
1 56072U 23043AC  26201.41129731 -.00000119  00000+0 -35139-3 0  9997
2 56072  87.8983 252.5768 0002221 102.2872 257.8507 13.15549098160791
ONEWEB-0632             
1 56073U 23043AD  26201.17838657 -.00000124  00000+0 -36447-3 0  9994
2 56073  87.8977 252.6396 0001906  98.9228 261.2118 13.15548122160769
ONEWEB-0633             
1 56074U 23043AE  26201.40021622 -.00000061  00000+0 -19699-3 0  9997
2 56074  87.8987 252.5736 0002468 101.7482 258.3926 13.15549169160774
ONEWEB-0634             
1 56075U 23043AF  26201.15778748 -.00000087  00000+0 -26520-3 0  9997
2 56075  87.8977 252.6590 0002211  87.9571 272.1813 13.15548428160735
ONEWEB-0635             
1 56076U 23043AG  26201.15303130  .00000064  00000+0  13655-3 0  9995
2 56076  87.8991 252.6258 0001746  97.9860 262.1468 13.15548597160762
ONEWEB-0636             
1 56077U 23043AH  26201.37327811  .00000071  00000+0  15368-3 0  9993
2 56077  87.8986 252.5875 0001803  96.8915 263.2420 13.15548066160776
ONEWEB-0637             
1 56078U 23043AJ  26201.21482663  .00000072  00000+0  15790-3 0  9994
2 56078  87.8982 252.6334 0001852  89.9344 270.1999 13.15548384160778
ONEWEB-0647             
1 56079U 23043AK  26201.21006817  .00000089  00000+0  20102-3 0  9999
2 56079  87.8981 252.6469 0001925 100.7963 259.3385 13.15548921160761
ONEWEB-0651             
1 56080U 23043AL  26201.58561114  .00000217  00000+0  54338-3 0  9998
2 56080  87.8976 252.5652 0001818  94.4758 265.6580 13.15548208162017
ONEWEB-0718             
1 56081U 23043AM  26201.42872958  .00000126  00000+0  30050-3 0  9997
2 56081  87.8981 252.5775 0002441  89.5501 270.5909 13.15550027160801
ONEWEB-0561             
1 56710U 23068A   26201.22762987 -.00000001  00000+0 -33472-4 0  9997
2 56710  87.9179 267.8596 0001805 105.9161 254.2172 13.20771364153862
ONEWEB-0668             
1 56711U 23068B   26201.48759318  .00000035  00000+0  58779-4 0  9992
2 56711  87.9077 222.1576 0002222  78.8601 281.2780 13.16594666156167
ONEWEB-0676             
1 56712U 23068C   26201.11551532 -.00001861  00000+0 -49021-2 0  9999
2 56712  87.9076 222.2378 0001773  92.5390 267.5944 13.16606817156033
ONEWEB-0677             
1 56713U 23068D   26201.21585424  .00000115  00000+0  25196-3 0  9995
2 56713  87.9176 267.8531 0001795  89.4308 270.7031 13.20772287154164
ONEWEB-0678             
1 56714U 23068E   26201.16887774 -.00000064  00000+0 -20429-3 0  9992
2 56714  87.8986 252.6241 0002116 104.2760 255.8605 13.15548459153626
ONEWEB-0679             
1 56715U 23068F   26201.30235544 -.00000024  00000+0 -97149-4 0  9991
2 56715  87.9081 222.1919 0001825  77.0309 283.1025 13.16594685156086
ONEWEB-0680             
1 56716U 23068G   26201.17521756 -.00000050  00000+0 -15295-3 0  9990
2 56716  87.9237 237.4077 0002091  77.9277 282.2091 13.21826137155452
ONEWEB-0681             
1 56717U 23068H   26201.38295206 -.00000055  00000+0 -16575-3 0  9999
2 56717  87.9236 237.3668 0001125 104.2001 255.9258 13.21827487155476
ONEWEB-0682             
1 56718U 23068J   26201.19264734  .00000033  00000+0  53498-4 0  9991
2 56718  87.8982 252.6196 0002042  81.9072 278.2290 13.15548881153796
ONEWEB-0683             
1 56719U 23068K   26201.21641088  .00000066  00000+0  14052-3 0  9994
2 56719  87.8989 252.6151 0002136  91.4426 268.6949 13.15548455153766
ONEWEB-0684             
1 56720U 23068L   26201.22432659  .00000006  00000+0 -18592-4 0  9998
2 56720  87.8988 252.6029 0003134 114.5279 245.6179 13.15549249153596
ONEWEB-0686             
1 56721U 23068M   26201.49077116  .00000038  00000+0  65489-4 0  9992
2 56721  87.9067 222.1749 0002377  90.0260 270.1144 13.16594082156092
ONEWEB-0694             
1 56722U 23068N   26201.34511231  .00000132  00000+0  31135-3 0  9993
2 56722  87.9090 222.1750 0002162  80.3730 279.7645 13.16593176156136
ONEWEB-0696             
1 56723U 23068P   26201.40971066 -.00000095  00000+0 -28597-3 0  9995
2 56723  87.8973 252.6015 0002154 109.5529 250.5834 13.15549295153731
ONEWEB-0703             
1 56724U 23068Q   26201.41922926  .00000026  00000+0  33945-4 0  9994
2 56724  87.8976 252.5812 0001945 123.1139 237.0179 13.15547498153628
